OBJECT_NAME,OBJECT_ID,EPOCH,MEAN_MOTION,ECCENTRICITY,INCLINATION,RA_OF_ASC_NODE,ARG_OF_PERICENTER,MEAN_ANOMALY,EPHEMERIS_TYPE,CLASSIFICATION_TYPE,NORAD_CAT_ID,ELEMENT_SET_NO,REV_AT_EPOCH,BSTAR,MEAN_MOTION_DOT,MEAN_MOTION_DDOT
BEIDOU-2 G3,2010-024A,2026-07-01T11:05:15.737280,1.00271005,.00079738,4.5482,61.4569,357.3118,106.7331,0,U,36590,999,5891,0,-.128E-5,0
BADR-5,2010-025A,2026-07-01T14:10:24.837600,1.00269660,.00043063,0.0523,118.7747,69.4734,334.4683,0,U,36592,999,5336,0,.164E-5,0
COMS 1,2010-032A,2026-06-30T22:43:05.955744,0.99168514,.00118602,4.8386,75.1955,13.5621,189.6530,0,U,36744,999,5122,0,-.48E-6,0
ARABSAT-5A,2010-032B,2026-07-01T14:10:24.837600,1.00274175,.00057372,0.0808,57.5382,58.4732,46.7339,0,U,36745,999,5879,0,.164E-5,0
ECHOSTAR 15,2010-034A,2026-07-01T06:59:58.980768,1.00273732,.000209,0.0392,283.0218,167.5607,174.9649,0,U,36792,999,5846,0,.1E-6,0
BEIDOU-2 IGSO-1,2010-036A,2026-06-30T08:59:38.680800,1.00268449,.00588274,54.3057,162.8407,225.1163,132.8817,0,U,36828,999,5822,0,-.82E-6,0
NILESAT 201,2010-037A,2026-07-01T03:43:47.906112,1.00272047,.000544,0.0482,206.2446,279.5310,202.3901,0,U,36830,999,5851,0,-.47E-6,0
RASCOM-QAF 1R,2010-037B,2026-07-01T03:47:17.795040,1.00271156,.00065369,0.0032,38.8826,54.3951,245.6517,0,U,36831,999,5844,0,.29E-6,0
AEHF-1 (USA 214),2010-039A,2026-06-30T20:10:38.689248,1.00268568,.00042245,8.2526,67.8662,28.0355,155.6367,0,U,36868,999,5379,0,.152E-5,0
XM-5,2010-053A,2026-07-01T13:30:03.655584,1.00270432,.00026535,0.0677,268.5890,286.0601,172.2777,0,U,37185,999,5762,0,-.12E-6,0
BSAT-3B,2010-056B,2026-07-01T14:11:51.268704,1.00269844,.00023079,0.0638,235.1712,292.7695,74.5006,0,U,37207,999,5224,0,-.339E-5,0
BEIDOU-2 G4,2010-057A,2026-07-01T14:47:20.799744,1.00271536,.00048299,3.6813,68.8647,189.6248,42.9930,0,U,37210,999,5743,0,-.104E-5,0
SKYTERRA 1,2010-061A,2026-07-01T13:22:57.580896,1.00270670,.0002399,5.1540,50.8295,35.9348,292.2807,0,U,37218,999,5733,0,-.11E-5,0
HYLAS 1,2010-065A,2026-06-30T07:17:51.718848,1.00272596,.00010436,5.6751,72.8623,340.0885,348.6881,0,U,37237,999,701,0,.96E-6,0
INTELSAT 17 (IS-17),2010-065B,2026-07-01T12:37:57.766656,1.00270576,.00026717,0.0285,83.7593,35.2638,56.0232,0,U,37238,999,5339,0,0,0
BEIDOU-2 IGSO-2,2010-068A,2026-06-30T16:18:05.669856,1.00279341,.00565661,47.5224,271.6646,213.8845,145.9362,0,U,37256,999,5693,0,-.187E-5,0
EUTELSAT KA-SAT 9A,2010-069A,2026-07-01T14:04:17.925312,1.00272325,.00037923,0.0602,13.1977,122.6530,3.8456,0,U,37258,999,4415,0,.72E-6,0
HISPASAT 30W-5,2010-070A,2026-07-01T10:27:32.587776,1.00271927,.00058522,0.0384,108.2349,4.8222,293.3230,0,U,37264,999,5332,0,-.205E-5,0
KOREASAT 6,2010-070B,2026-07-01T14:25:18.729408,1.00272281,.00026924,0.0153,48.3677,62.6487,184.8479,0,U,37265,999,5691,0,-.101E-5,0
BEIDOU-2 IGSO-3,2011-013A,2026-07-01T12:49:50.551968,1.00264921,.00352253,62.4273,40.0161,184.0407,355.1634,0,U,37384,999,5580,0,-.159E-5,0
INTELSAT 28 (IS-28),2011-016A,2026-07-01T10:47:30.950592,1.00270276,.00040111,1.8411,82.4587,17.6487,309.5288,0,U,37392,999,5342,0,-.216E-5,0
YAHSAT 1A,2011-016B,2026-07-01T05:43:29.555328,1.00270571,.0003508,0.0209,37.3836,73.0138,307.2738,0,U,37393,999,4254,0,0,0
SBIRS GEO-1 (USA 230),2011-019A,2026-07-01T05:43:14.577888,1.00272231,.0001891,4.5665,53.1162,39.9496,323.8343,0,U,37481,999,5554,0,.107E-5,0
TELSTAR 14R,2011-021A,2026-07-01T12:01:08.797728,1.00271452,.00023393,0.0526,81.8295,353.8641,321.1582,0,U,37602,999,5597,0,-.269E-5,0
GSAT-8,2011-022A,2026-07-01T14:17:24.167904,1.00272609,.00018224,2.1663,81.6591,174.3523,293.0828,0,U,37605,999,5336,0,.93E-6,0
ST-2,2011-022B,2026-07-01T14:26:55.341024,1.00272307,.00017646,0.0191,46.3440,62.9578,115.1070,0,U,37606,999,5542,0,-.201E-5,0
ZHONGXING-10,2011-026A,2026-07-01T14:26:10.413024,1.00272189,.00038151,1.0831,84.0519,10.3797,127.2991,0,U,37677,999,5514,0,-.179E-5,0
SES-3,2011-035A,2026-07-01T13:24:10.213920,1.00272400,.00024384,1.3620,82.9466,8.0464,286.6640,0,U,37748,999,5473,0,-.92E-6,0
KAZSAT-2,2011-035B,2026-07-01T09:18:27.921024,1.00273713,.00017334,0.0188,98.1262,54.8716,352.5596,0,U,37749,999,5354,0,-.188E-5,0
BEIDOU-2 IGSO-4,2011-038A,2026-06-30T22:39:21.613824,1.00282911,.01596501,54.6040,165.5504,231.3791,315.8344,0,U,37763,999,5478,0,.17E-6,0
ASTRA 1N,2011-041A,2026-07-01T14:07:17.638176,1.00272439,.00059143,0.0882,43.1557,55.8737,51.6091,0,U,37775,999,4467,0,.13E-5,0
BSAT-3C (JCSAT-110R),2011-041B,2026-07-01T14:11:51.324000,1.00269494,.00006573,0.0148,354.1699,165.3134,83.0647,0,U,37776,999,5061,0,-.34E-5,0
