BEIDOU-2 G3             
1 36590U 10024A   26182.46198770 -.00000128  00000+0  00000+0 0  9991
2 36590   4.5482  61.4569 0007973 357.3118 106.7331  1.00271005 58913
BADR-5                  
1 36592U 10025A   26182.59056525  .00000164  00000+0  00000+0 0  9998
2 36592   0.0523 118.7747 0004306  69.4734 334.4683  1.00269660 53366
COMS 1                  
1 36744U 10032A   26181.94659671 -.00000048  00000+0  00000+0 0  9996
2 36744   4.8386  75.1955 0011860  13.5621 189.6530  0.99168514 51226
ARABSAT-5A              
1 36745U 10032B   26182.59056525  .00000164  00000+0  00000+0 0  9996
2 36745   0.0808  57.5382 0005737  58.4732  46.7339  1.00274175 58792
ECHOSTAR 15             
1 36792U 10034A   26182.29165487  .00000010  00000+0  00000+0 0  9995
2 36792   0.0392 283.0218 0002090 167.5607 174.9649  1.00273732 58468
BEIDOU-2 IGSO-1         
1 36828U 10036A   26181.37475325 -.00000082  00000+0  00000+0 0  9990
2 36828  54.3057 162.8407 0058827 225.1163 132.8817  1.00268449 58222
NILESAT 201             
1 36830U 10037A   26182.15541558 -.00000047  00000+0  00000+0 0  9994
2 36830   0.0482 206.2446 0005440 279.5310 202.3901  1.00272047 58519
RASCOM-QAF 1R           
1 36831U 10037B   26182.15784485  .00000029  00000+0  00000+0 0  9992
2 36831   0.0032  38.8826 0006536  54.3951 245.6517  1.00271156 58444
AEHF-1 (USA 214)        
1 36868U 10039A   26181.84072557  .00000152  00000+0  00000+0 0  9996
2 36868   8.2526  67.8662 0004224  28.0355 155.6367  1.00268568 53799
XM-5                    
1 37185U 10053A   26182.56254231 -.00000012  00000+0  00000+0 0  9992
2 37185   0.0677 268.5890 0002653 286.0601 172.2777  1.00270432 57625
BSAT-3B                 
1 37207U 10056B   26182.59156561 -.00000339  00000+0  00000+0 0  9992
2 37207   0.0638 235.1712 0002307 292.7695  74.5006  1.00269844 52240
BEIDOU-2 G4             
1 37210U 10057A   26182.61621296 -.00000104  00000+0  00000+0 0  9992
2 37210   3.6813  68.8647 0004829 189.6248  42.9930  1.00271536 57437
SKYTERRA 1              
1 37218U 10061A   26182.55761089 -.00000110  00000+0  00000+0 0  9990
2 37218   5.1540  50.8295 0002399  35.9348 292.2807  1.00270670 57333
HYLAS 1                 
1 37237U 10065A   26181.30407082  .00000096  00000+0  00000+0 0  9999
2 37237   5.6751  72.8623 0001043 340.0885 348.6881  1.00272596  7010
INTELSAT 17 (IS-17)     
1 37238U 10065B   26182.52636304  .00000000  00000+0  00000+0 0  9991
2 37238   0.0285  83.7593 0002671  35.2638  56.0232  1.00270576 53394
BEIDOU-2 IGSO-2         
1 37256U 10068A   26181.67923229 -.00000187  00000+0  00000+0 0  9991
2 37256  47.5224 271.6646 0056566 213.8845 145.9362  1.00279341 56930
EUTELSAT KA-SAT 9A      
1 37258U 10069A   26182.58631858  .00000072  00000+0  00000+0 0  9991
2 37258   0.0602  13.1977 0003792 122.6530   3.8456  1.00272325 44155
HISPASAT 30W-5          
1 37264U 10070A   26182.43579384 -.00000205  00000+0  00000+0 0  9998
2 37264   0.0384 108.2349 0005852   4.8222 293.3230  1.00271927 53328
KOREASAT 6              
1 37265U 10070B   26182.60091122 -.00000101  00000+0  00000+0 0  9992
2 37265   0.0153  48.3677 0002692  62.6487 184.8479  1.00272281 56916
BEIDOU-2 IGSO-3         
1 37384U 11013A   26182.53461287 -.00000159  00000+0  00000+0 0  9990
2 37384  62.4273  40.0161 0035225 184.0407 355.1634  1.00264921 55804
INTELSAT 28 (IS-28)     
1 37392U 11016A   26182.44966378 -.00000216  00000+0  00000+0 0  9997
2 37392   1.8411  82.4587 0004011  17.6487 309.5288  1.00270276 53428
YAHSAT 1A               
1 37393U 11016B   26182.23853652  .00000000  00000+0  00000+0 0  9995
2 37393   0.0209  37.3836 0003508  73.0138 307.2738  1.00270571 42544
SBIRS GEO-1 (USA 230)   
1 37481U 11019A   26182.23836317  .00000107  00000+0  00000+0 0  9993
2 37481   4.5665  53.1162 0001891  39.9496 323.8343  1.00272231 55541
TELSTAR 14R             
1 37602U 11021A   26182.50079627 -.00000269  00000+0  00000+0 0  9994
2 37602   0.0526  81.8295 0002339 353.8641 321.1582  1.00271452 55973
GSAT-8                  
1 37605U 11022A   26182.59541861  .00000093  00000+0  00000+0 0  9995
2 37605   2.1663  81.6591 0001822 174.3523 293.0828  1.00272609 53365
ST-2                    
1 37606U 11022B   26182.60202941 -.00000201  00000+0  00000+0 0  9993
2 37606   0.0191  46.3440 0001764  62.9578 115.1070  1.00272307 55424
ZHONGXING-10            
1 37677U 11026A   26182.60150941 -.00000179  00000+0  00000+0 0  9991
2 37677   1.0831  84.0519 0003815  10.3797 127.2991  1.00272189 55142
SES-3                   
1 37748U 11035A   26182.55845155 -.00000092  00000+0  00000+0 0  9996
2 37748   1.3620  82.9466 0002438   8.0464 286.6640  1.00272400 54734
KAZSAT-2                
1 37749U 11035B   26182.38782316 -.00000188  00000+0  00000+0 0  9993
2 37749   0.0188  98.1262 0001733  54.8716 352.5596  1.00273713 53548
BEIDOU-2 IGSO-4         
1 37763U 11038A   26181.94400016  .00000017  00000+0  00000+0 0  9997
2 37763  54.6040 165.5504 0159650 231.3791 315.8344  1.00282911 54781
ASTRA 1N                
1 37775U 11041A   26182.58839859  .00000130  00000+0  00000+0 0  9992
2 37775   0.0882  43.1557 0005914  55.8737  51.6091  1.00272439 44679
BSAT-3C (JCSAT-110R)    
1 37776U 11041B   26182.59156625 -.00000340  00000+0  00000+0 0  9991
2 37776   0.0148 354.1699 0000657 165.3134  83.0647  1.00269494 50618
